AISTECHSAT 2            
1 43768U 18099L   26131.10771393  .00003052  00000+0  16660-3 0  9990
2 43768  97.4325 179.9584 0006299  76.3249 283.8684 15.15064945406661
FOX-1CLIFF (AO-95)      
1 43770U 18099N   26131.10130149  .00007590  00000+0  29846-3 0  9992
2 43770  97.4408 191.5040 0010413 116.7346 243.4960 15.25898855407568
RANGE-A                 
1 43773U 18099R   26131.54398992  .00003001  00000+0  17302-3 0  9992
2 43773  97.3999 175.1989 0012048 112.0814 248.1698 15.13063601406952
SNUSAT-2                
1 43782U 18099AA  26131.37331884  .00005066  00000+0  22942-3 0  9999
2 43782  97.4089 185.3340 0011752  70.2145 290.0357 15.21263973407435
SNUGLITE                
1 43784U 18099AC  26131.11290757  .00007562  00000+0  29362-3 0  9992
2 43784  97.3899 185.7766 0004279  76.8149 283.3567 15.26360439407666
ITASAT                  
1 43786U 18099AE  26131.39043102  .00003940  00000+0  19342-3 0  9997
2 43786  97.4060 183.6448 0014297 118.7337 241.5336 15.18572964407321
EAGLET-I                
1 43790U 18099AJ  26131.73916229  .00002626  00000+0  15359-3 0  9993
2 43790  97.4262 182.3757 0012834 110.0469 250.2145 15.12654098406827
ESEO                    
1 43792U 18099AL  26131.85876159  .00001641  00000+0  12235-3 0  9991
2 43792  97.3996 170.7995 0013335  97.2661 263.0082 15.04128932406347
THEA                    
1 43796U 18099AQ  26131.15906982  .00011513  00000+0  35461-3 0  9991
2 43796  97.4458 200.5256 0008417  65.3514 294.8604 15.33756959407010
ASTROCAST 0.1           
1 43798U 18099AS  26131.68023030  .00021509  00000+0  42501-3 0  9994
2 43798  97.4386 209.1089 0003997   6.6418 353.4884 15.47148977408787
JY1SAT (JO-97)          
1 43803U 18099AX  26131.80423317  .00010362  00000+0  33255-3 0  9998
2 43803  97.4155 194.5422 0006497  54.2784 305.9061 15.32484076408055
SUOMI-100               
1 43804U 18099AY  26131.13954281  .00007164  00000+0  26810-3 0  9999
2 43804  97.4213 191.6912 0011151  58.7267 301.5063 15.27555792407760
CENTAURI-1              
1 43809U 18099BD  26131.11515158  .00003305  00000+0  17514-3 0  9992
2 43809  97.4250 183.6363 0015960  97.3147 262.9901 15.15977015406881
GLOBAL-2                
1 43812U 18099BG  26131.85832617  .00002300  00000+0  15150-3 0  9997
2 43812  97.3584 169.8830 0004262 281.4919  78.5831 15.08454444406437
SEAHAWK-1               
1 43820U 18099BQ  26131.13339211  .00005479  00000+0  24136-3 0  9993
2 43820  97.3988 184.1964 0009979  83.6159 276.6214 15.22188064406894
SAUDISAT 5A             
1 43831U 18102A   26131.88116154  .00003301  00000+0  12468-3 0  9998
2 43831  97.3091 194.1676 0008036 260.1920  99.8412 15.27669280410139
SAUDISAT 5B             
1 43833U 18102C   26131.84086656  .00003026  00000+0  11356-3 0  9998
2 43833  97.3196 197.1319 0008734 263.3731  96.6515 15.27945428410246
ISAT                    
1 43879U 18111D   26131.32702455  .00051905  00000+0  65547-3 0  9993
2 43879  97.5891  63.8994 0008413  86.5627 273.6591 15.59367710405412
UWE-4                   
1 43880U 18111E   26131.23093435  .00019748  00000+0  43591-3 0  9990
2 43880  97.5850  57.9888 0010736  97.5983 262.6485 15.43861134405077
D-STAR ONE (SPARROW)    
1 43881U 18111F   26131.78948816  .00073765  00000+0  72904-3 0  9992
2 43881  97.6117  69.4569 0007742 109.3566 250.8531 15.65618178405669
JILIN-1 09              
1 43943U 19005B   26131.84914307  .00002790  00000+0  13205-3 0  9998
2 43943  97.4715 227.1359 0001993 174.8290 185.2966 15.20185127403624
JILIN-1 10              
1 43946U 19005E   26131.85313823  .00003538  00000+0  14322-3 0  9990
2 43946  97.4755 230.6752 0009253  54.7778 305.4325 15.25318130403779
EGYPTSAT-A (MISRSAT-A)  
1 44047U 19008A   26131.78322172  .00000084  00000+0  21139-4 0  9993
2 44047  98.0053 197.0823 0001342  74.4147 285.7208 14.72263629387881
EMISAT                  
1 44078U 19018A   26131.82709075  .00000082  00000+0  37280-4 0  9996
2 44078  98.4666 190.8215 0017904 331.0953  28.9244 14.43669595374819
JILIN-1 GAOFEN 3A       
1 44312U 19032C   26131.57497672  .00006796  00000+0  22651-3 0  9995
2 44312  44.9751 198.3043 0003099  89.2330 270.8909 15.31839987382226
PROX-1                  
1 44339U 19036A   26131.76338201  .00008510  00000+0  83765-3 0  9990
2 44339  23.9966 357.3850 0006484 332.6468  27.3690 14.89744226368039
NPSAT1                  
1 44340U 19036B   26131.57009789  .00003225  00000+0  44064-3 0  9994
2 44340  23.9981  96.1712 0008096 155.4817 204.6064 14.74234870367085
