OBJECT_NAME,OBJECT_ID,EPOCH,MEAN_MOTION,ECCENTRICITY,INCLINATION,RA_OF_ASC_NODE,ARG_OF_PERICENTER,MEAN_ANOMALY,EPHEMERIS_TYPE,CLASSIFICATION_TYPE,NORAD_CAT_ID,ELEMENT_SET_NO,REV_AT_EPOCH,BSTAR,MEAN_MOTION_DOT,MEAN_MOTION_DDOT
AISTECHSAT 2,2018-099L,2026-05-11T02:35:06.483552,15.15064945,.00062995,97.4325,179.9584,76.3249,283.8684,0,U,43768,999,40666,.16660149E-3,.3052E-4,0
FOX-1CLIFF (AO-95),2018-099N,2026-05-11T02:25:52.448736,15.25898855,.00104131,97.4408,191.5040,116.7346,243.4960,0,U,43770,999,40756,.29845512E-3,.759E-4,0
RANGE-A,2018-099R,2026-05-11T13:03:20.729088,15.13063601,.0012048,97.3999,175.1989,112.0814,248.1698,0,U,43773,999,40695,.17302E-3,.3001E-4,0
SNUSAT-2,2018-099AA,2026-05-11T08:57:34.747776,15.21263973,.00117528,97.4089,185.3340,70.2145,290.0357,0,U,43782,999,40743,.22942161E-3,.5066E-4,0
SNUGLITE,2018-099AC,2026-05-11T02:42:35.214048,15.26360439,.00042799,97.3899,185.7766,76.8149,283.3567,0,U,43784,999,40766,.29361918E-3,.7562E-4,0
ITASAT,2018-099AE,2026-05-11T09:22:13.240128,15.18572964,.00142978,97.4060,183.6448,118.7337,241.5336,0,U,43786,999,40732,.19342183E-3,.394E-4,0
EAGLET-I,2018-099AJ,2026-05-11T17:44:23.621856,15.12654098,.0012834,97.4262,182.3757,110.0469,250.2145,0,U,43790,999,40682,.15359E-3,.2626E-4,0
ESEO,2018-099AL,2026-05-11T20:36:37.001376,15.04128932,.0013335,97.3996,170.7995,97.2661,263.0082,0,U,43792,999,40634,.12235E-3,.1641E-4,0
THEA,2018-099AQ,2026-05-11T03:49:03.632448,15.33756959,.00084178,97.4458,200.5256,65.3514,294.8604,0,U,43796,999,40701,.35461059E-3,.11513E-3,0
ASTROCAST 0.1,2018-099AS,2026-05-11T16:19:31.897920,15.47148977,.0003997,97.4386,209.1089,6.6418,353.4884,0,U,43798,999,40878,.42501E-3,.21509E-3,0
JY1SAT (JO-97),2018-099AX,2026-05-11T19:18:05.745888,15.32484076,.0006497,97.4155,194.5422,54.2784,305.9061,0,U,43803,999,40805,.33255E-3,.10362E-3,0
SUOMI-100,2018-099AY,2026-05-11T03:20:56.498784,15.27555792,.00111511,97.4213,191.6912,58.7267,301.5063,0,U,43804,999,40776,.26810307E-3,.7164E-4,0
CENTAURI-1,2018-099BD,2026-05-11T02:45:49.096512,15.15977015,.00159604,97.4250,183.6363,97.3147,262.9901,0,U,43809,999,40688,.17513886E-3,.3305E-4,0
GLOBAL-2,2018-099BG,2026-05-11T20:35:59.381088,15.08454444,.0004262,97.3584,169.8830,281.4919,78.5831,0,U,43812,999,40643,.1515E-3,.23E-4,0
SEAHAWK-1,2018-099BQ,2026-05-11T03:12:05.078304,15.22188064,.00099797,97.3988,184.1964,83.6159,276.6214,0,U,43820,999,40689,.24136079E-3,.5479E-4,0
SAUDISAT 5A,2018-102A,2026-05-11T21:08:52.357056,15.27669280,.0008036,97.3091,194.1676,260.1920,99.8412,0,U,43831,999,41013,.12468E-3,.3301E-4,0
SAUDISAT 5B,2018-102C,2026-05-11T20:10:50.870784,15.27945428,.0008734,97.3196,197.1319,263.3731,96.6515,0,U,43833,999,41024,.11356E-3,.3026E-4,0
ISAT,2018-111D,2026-05-11T07:50:54.921120,15.59367710,.00084135,97.5891,63.8994,86.5627,273.6591,0,U,43879,999,40541,.65546608E-3,.51905E-3,0
UWE-4,2018-111E,2026-05-11T05:32:32.727840,15.43861134,.0010736,97.5850,57.9888,97.5983,262.6485,0,U,43880,999,40507,.43591441E-3,.19748E-3,0
D-STAR ONE (SPARROW),2018-111F,2026-05-11T18:56:51.777024,15.65618178,.0007742,97.6117,69.4569,109.3566,250.8531,0,U,43881,999,40566,.72904E-3,.73765E-3,0
JILIN-1 09,2019-005B,2026-05-11T20:22:45.961248,15.20185127,.0001993,97.4715,227.1359,174.8290,185.2966,0,U,43943,999,40362,.13205E-3,.279E-4,0
JILIN-1 10,2019-005E,2026-05-11T20:28:31.143072,15.25318130,.0009253,97.4755,230.6752,54.7778,305.4325,0,U,43946,999,40377,.14322E-3,.3538E-4,0
EGYPTSAT-A (MISRSAT-A),2019-008A,2026-05-11T18:47:50.356608,14.72263629,.0001342,98.0053,197.0823,74.4147,285.7208,0,U,44047,999,38788,.21139E-4,.84E-6,0
EMISAT,2019-018A,2026-05-11T19:51:00.640800,14.43669595,.0017904,98.4666,190.8215,331.0953,28.9244,0,U,44078,999,37481,.3728E-4,.82E-6,0
JILIN-1 GAOFEN 3A,2019-032C,2026-05-11T13:47:57.988608,15.31839987,.0003099,44.9751,198.3043,89.2330,270.8909,0,U,44312,999,38222,.22651E-3,.6796E-4,0
PROX-1,2019-036A,2026-05-11T18:19:16.205664,14.89744226,.0006484,23.9966,357.3850,332.6468,27.3690,0,U,44339,999,36803,.83765E-3,.851E-4,0
NPSAT1,2019-036B,2026-05-11T13:40:56.457696,14.74234870,.0008096,23.9981,96.1712,155.4817,204.6064,0,U,44340,999,36708,.44064E-3,.3225E-4,0
